{
  "norad_id": 68536,
  "name": "STARLINK-37173",
  "history": [
    {
      "epoch": "2026-04-07T01:11:47.193792Z",
      "apogee_km": 288.21103266770115,
      "perigee_km": 287.22448616330803,
      "latitude_deg": -2.5513387816418178e-05,
      "longitude_deg": 153.8818178614923,
      "height_km": 288.18984181545824,
      "semi_major_axis_km": 6665.854759415504,
      "eccentricity": 7.4e-05,
      "inclination_deg": 53.161,
      "raan_deg": 7.1608,
      "arg_perigee_deg": 336.7696,
      "mean_anomaly_deg": 23.3299,
      "mean_motion_rev_day": 15.95214145
    }
  ]
}