STARLINK-37173          
1 68536U 26068AE  26097.04985178 -.00582162  12035-3 -14369-2 0  9991
2 68536  53.1610   7.1608 0000740 336.7696  23.3299 15.95214145  1151
